NORAD_CAT_ID,OBJECT_NAME,OBJECT_TYPE,EPOCH,MEAN_MOTION,ECCENTRICITY,INCLINATION,RA_OF_ASC_NODE,ARG_OF_PERICENTER,MEAN_ANOMALY,BSTAR,MEAN_MOTION_DOT,MEAN_MOTION_DDOT,TLE_LINE0,TLE_LINE1,TLE_LINE2,SEMIMAJOR_AXIS,PERIOD,APOGEE,PERIGEE,DECAYED
52106.0,STARLINK-3670,PAYLOAD,2022-03-22 16:00:00,15.83908802,0.0001489,53.2172,127.1235,309.0345,99.5287,-0.0043193,-0.00889158,0.0,0 STARLINK-3670,1 52106U 22029U   22081.66667824 -.00889158  00000-0 -43193-2 0  9990,2 52106  53.2172 127.1235 0001489 309.0345  99.5287 15.83908802  1806,6697.536,90.914,320.398,318.404,0.0
52106.0,STARLINK-3670,PAYLOAD,2022-03-23 12:00:00,15.82327265,0.0001239,53.2174,122.9393,56.5208,64.133,-0.0045767,-0.00875135,0.0,0 STARLINK-3670,1 52106U 22029U   22082.50001157 -.00875135  00000-0 -45767-2 0  9994,2 52106  53.2174 122.9393 0001239  56.5208  64.1330 15.82327265  1939,6701.998000000001,91.005,324.693,323.033,0.0
52106.0,STARLINK-3670,PAYLOAD,2022-03-23 14:00:01,15.82168431,0.0001193,53.2172,122.5213,62.3008,173.3023,-0.0045949,-0.00872326,0.0,0 STARLINK-3670,1 52106U 22029U   22082.58334491 -.00872326  00000-0 -45949-2 0  9993,2 52106  53.2172 122.5213 0001193  62.3008 173.3023 15.82168431  1431,6702.446999999999,91.014,325.111,323.512,0.0
52106.0,STARLINK-3670,PAYLOAD,2022-03-23 22:00:00,15.8154065,9.85e-05,53.2174,120.8484,69.0533,265.8739,-0.0047501,-0.00875195,0.0,0 STARLINK-3670,1 52106U 22029U   22082.91667824 -.00875195  00000-0 -47501-2 0  9992,2 52106  53.2174 120.8484 0000985  69.0533 265.8739 15.81540650  1481,6704.22,91.05,326.746,325.425,0.0
52106.0,STARLINK-3670,PAYLOAD,2022-03-24 04:00:00,15.81071681,0.0001138,53.2176,119.5964,56.7102,262.2109,-0.0048794,-0.00879167,0.0,0 STARLINK-3670,1 52106U 22029U   22083.16667824 -.00879167  00000-0 -48794-2 0  9998,2 52106  53.2176 119.5964 0001138  56.7102 262.2109 15.81071681  2034,6705.545999999999,91.077,328.1740000000001,326.648,0.0
52106.0,STARLINK-3670,PAYLOAD,2022-03-24 14:00:01,15.80280952,0.0001162,53.2173,117.5134,71.1091,100.1934,-0.005018,-0.00872261,0.0,0 STARLINK-3670,1 52106U 22029U   22083.58334491 -.00872261  00000-0 -50180-2 0  9995,2 52106  53.2173 117.5134 0001162  71.1091 100.1934 15.80280952  1591,6707.781999999997,91.123,330.427,328.86800000000005,0.0
52106.0,STARLINK-3670,PAYLOAD,2022-03-24 22:00:00,15.79652807,0.0001125,53.2174,115.8451,65.6908,202.6668,-0.0051788,-0.00874285,0.0,0 STARLINK-3670,1 52106U 22029U   22083.91667824 -.00874285  00000-0 -51788-2 0  9994,2 52106  53.2174 115.8451 0001125  65.6908 202.6668 15.79652807  2154,6709.561,91.159,332.18,330.671,0.0
52106.0,STARLINK-3670,PAYLOAD,2022-03-25 14:00:01,15.7839506,0.0001057,53.2171,112.5196,65.7514,34.4441,-0.0054895,-0.00874897,0.0,0 STARLINK-3670,1 52106U 22029U   22084.58334491 -.00874897  00000-0 -54895-2 0  9990,2 52106  53.2171 112.5196 0001057  65.7514  34.4441 15.78395060  1758,6713.124,91.232,335.699,334.28,0.0
52106.0,STARLINK-3670,PAYLOAD,2022-03-25 20:00:01,15.77922464,9.79e-05,53.2175,111.2717,79.2596,2.0977,-0.0056015,-0.00873913,0.0,0 STARLINK-3670,1 52106U 22029U   22084.83334491 -.00873913  00000-0 -56015-2 0  9992,2 52106  53.2175 111.2717 0000979  79.2596   2.0977 15.77922464  2309,6714.465,91.259,336.987,335.672,0.0
52106.0,STARLINK-3670,PAYLOAD,2022-03-25 22:00:01,15.77764648,0.0001125,53.2173,110.8559,78.2522,116.7962,-0.0056341,-0.00872913,0.0,0 STARLINK-3670,1 52106U 22029U   22084.91668981 -.00872913  00000-0 -56341-2 0  9996,2 52106  53.2173 110.8559 0001125  78.2522 116.7962 15.77764648  1807,6714.913000000001,91.268,337.533,336.022,0.0
52106.0,STARLINK-3670,PAYLOAD,2022-03-26 12:00:00,15.76662048,0.0001134,53.2176,107.9544,72.4096,196.6271,-0.0059031,-0.00870667,0.0,0 STARLINK-3670,1 52106U 22029U   22085.50001157 -.00870667  00000-0 -59031-2 0  9991,2 52106  53.2176 107.9544 0001134  72.4096 196.6271 15.76662048  2400,6718.043000000002,91.332,340.67,339.146,0.0
52106.0,STARLINK-3670,PAYLOAD,2022-03-26 14:00:01,15.76508025,0.0001001,53.2172,107.5396,64.6379,317.6449,-0.005977,-0.00875023,0.0,0 STARLINK-3670,1 52106U 22029U   22085.58334491 -.00875023  00000-0 -59770-2 0  9990,2 52106  53.2172 107.5396 0001001  64.6379 317.6449 15.76508025  1918,6718.48,91.341,341.01800000000014,339.673,0.0
52106.0,STARLINK-3670,PAYLOAD,2022-03-26 22:00:00,15.75877077,0.0001223,53.2172,105.8807,52.7565,62.0454,-0.0061331,-0.00873304,0.0,0 STARLINK-3670,1 52106U 22029U   22085.91667824 -.00873304  00000-0 -61331-2 0  9992,2 52106  53.2172 105.8807 0001223  52.7565  62.0454 15.75877077  1964,6720.274,91.378,342.96,341.31699999999995,0.0
52106.0,STARLINK-3670,PAYLOAD,2022-03-27 04:00:00,15.75406532,0.0001339,53.2175,104.6399,44.879,48.8132,-0.0062784,-0.00875403,0.0,0 STARLINK-3670,1 52106U 22029U   22086.16667824 -.00875403  00000-0 -62784-2 0  9995,2 52106  53.2175 104.6399 0001339  44.8790  48.8132 15.75406532  2511,6721.611999999999,91.405,344.37699999999984,342.577,0.0
52106.0,STARLINK-3670,PAYLOAD,2022-03-27 14:00:01,15.74620186,0.0001057,53.2172,102.5736,76.546,221.0187,-0.0064929,-0.00874549,0.0,0 STARLINK-3670,1 52106U 22029U   22086.58334491 -.00874549  00000-0 -64929-2 0  9995,2 52106  53.2172 102.5736 0001057  76.5460 221.0187 15.74620186  2071,6723.849,91.451,346.425,345.00300000000016,0.0
52106.0,STARLINK-3670,PAYLOAD,2022-03-27 22:00:01,15.73971003,0.0001056,53.2173,100.9193,57.4412,330.4437,-0.0063433,-0.00834582,0.0,0 STARLINK-3670,1 52106U 22029U   22086.91668981 -.00834582  00000-0 -63433-2 0  9998,2 52106  53.2173 100.9193 0001056  57.4412 330.4437 15.73971003  2120,6725.698,91.488,348.273,346.853,0.0
52106.0,STARLINK-3670,PAYLOAD,2022-03-28 04:00:00,15.73333813,0.0001269,53.2177,99.6821,55.8994,309.1314,-0.0014369,-0.00198724,0.0,0 STARLINK-3670,1 52106U 22029U   22087.16667824 -.00198724  00000-0 -14369-2 0  9996,2 52106  53.2177  99.6821 0001269  55.8994 309.1314 15.73333813  2666,6727.514,91.525,350.232,348.525,0.0
52106.0,STARLINK-3670,PAYLOAD,2022-03-28 14:00:01,15.7320822,0.0001161,53.2171,97.6208,67.9411,138.3868,-4.9276e-05,-7.531e-05,0.0,0 STARLINK-3670,1 52106U 22029U   22087.58335648 -.00007531  00000-0 -49276-4 0  9990,2 52106  53.2171  97.6208 0001161  67.9411 138.3868 15.73208220  2733,6727.871999999999,91.533,350.51800000000014,348.956,0.0
52106.0,STARLINK-3670,PAYLOAD,2022-03-28 20:00:01,15.73197645,0.0001626,53.2165,96.3827,71.206,111.7864,0.0006467,0.00091122,0.0,0 STARLINK-3670,1 52106U 22029U   22087.83334491  .00091122  00000-0  64670-3 0  9994,2 52106  53.2165  96.3827 0001626  71.2060 111.7864 15.73197645  2776,6727.901999999999,91.533,350.861,348.673,0.0
52106.0,STARLINK-3670,PAYLOAD,2022-03-28 22:00:00,15.73205459,0.0001629,53.2164,95.9701,73.1321,222.0981,0.00070469,0.00099481,0.0,0 STARLINK-3670,1 52106U 22029U   22087.91667824  .00099481  00000-0  70469-3 0  9991,2 52106  53.2164  95.9701 0001629  73.1321 222.0981 15.73205459  2280,6727.88,91.533,350.841,348.649,0.0
52106.0,STARLINK-3670,PAYLOAD,2022-03-29 04:00:00,15.73309079,0.000157,53.2166,94.734,71.1524,200.8001,-0.00066359,-0.00093162,0.0,0 STARLINK-3670,1 52106U 22029U   22088.16667824 -.00093162  00000-0 -66359-3 0  9994,2 52106  53.2166  94.7340 0001570  71.1524 200.8001 15.73309079  2826,6727.584,91.527,350.505,348.39300000000014,0.0
52106.0,STARLINK-3670,PAYLOAD,2022-03-29 14:00:01,15.73249523,0.0001311,53.2164,92.6724,58.8071,54.3998,-0.00038941,-0.0005502999999999,0.0,0 STARLINK-3670,1 52106U 22029U   22088.58334491 -.00055030  00000-0 -38941-3 0  9999,2 52106  53.2164  92.6724 0001311  58.8071  54.3998 15.73249523  2384,6727.754,91.53,350.501,348.737,0.0
52106.0,STARLINK-3670,PAYLOAD,2022-03-29 22:00:00,15.73190643,9.81e-05,53.2166,91.0208,64.6521,137.5268,9.7782e-06,7.53e-06,0.0,0 STARLINK-3670,1 52106U 22029U   22088.91667824  .00000753  00000-0  97782-5 0  9995,2 52106  53.2166  91.0208 0000981  64.6521 137.5268 15.73190643  2442,6727.922,91.534,350.44699999999995,349.12699999999984,0.0
52106.0,STARLINK-3670,PAYLOAD,2022-03-30 12:00:00,15.731649,9.57e-05,53.2165,88.1363,41.8142,225.9932,0.00065054,0.0009154,0.0,0 STARLINK-3670,1 52106U 22029U   22089.50001157  .00091540  00000-0  65054-3 0  9991,2 52106  53.2165  88.1363 0000957  41.8142 225.9932 15.73164900  3032,6727.995,91.535,350.504,349.216,0.0
52106.0,STARLINK-3670,PAYLOAD,2022-03-30 14:00:01,15.73198904,9.45e-05,53.2163,87.7234,44.2808,335.8115,0.00031871,0.00044343,0.0,0 STARLINK-3670,1 52106U 22029U   22089.58335648  .00044343  00000-0  31871-3 0  9993,2 52106  53.2163  87.7234 0000945  44.2808 335.8115 15.73198904  2545,6727.898,91.533,350.399,349.12800000000016,0.0
52106.0,STARLINK-3670,PAYLOAD,2022-03-30 20:00:01,15.73219393,8.1e-05,53.2164,86.4848,57.0834,299.646,0.00013172,0.00017921,0.0,0 STARLINK-3670,1 52106U 22029U   22089.83334491  .00017921  00000-0  13172-3 0  9992,2 52106  53.2164  86.4848 0000810  57.0834 299.6460 15.73219393  3081,6727.84,91.532,350.25,349.16,0.0
52106.0,STARLINK-3670,PAYLOAD,2022-03-30 22:00:00,15.73241514,8.499999999999999e-05,53.2164,86.0722,62.6461,46.3168,-0.00020219,-0.00028947,0.0,0 STARLINK-3670,1 52106U 22029U   22089.91667824 -.00028947  00000-0 -20219-3 0  9992,2 52106  53.2164  86.0722 0000850  62.6461  46.3168 15.73241514  2609,6727.776999999999,91.531,350.214,349.07,0.0
52106.0,STARLINK-3670,PAYLOAD,2022-03-31 04:00:00,15.73241727,8.9e-05,53.2166,84.8364,56.6003,29.0982,-0.00070525,-0.00098615,0.0,0 STARLINK-3670,1 52106U 22029U   22090.16667824 -.00098615  00000-0 -70525-3 0  9995,2 52106  53.2166  84.8364 0000890  56.6003  29.0982 15.73241727  3146,6727.776,91.531,350.24,349.042,0.0
52106.0,STARLINK-3670,PAYLOAD,2022-03-31 12:00:00,15.73171345,8.7e-05,53.2163,83.1876,45.7972,128.8404,0.00061295,0.00086183,0.0,0 STARLINK-3670,1 52106U 22029U   22090.50001157  .00086183  00000-0  61295-3 0  9993,2 52106  53.2163  83.1876 0000870  45.7972 128.8404 15.73171345  3195,6727.977,91.535,350.427,349.25699999999995,0.0
